$$SOE
2460714.500000000, A.D. 2025-Feb-08 00:00:00.0000, -9.582765096222309E+09, 5.221094380466953E+09, -1.339748285367462E+09,
2460721.500000000, A.D. 2025-Feb-15 00:00:00.0000, -9.584446337225201E+09, 5.220438729282902E+09, -1.341030182955946E+09,
2460728.500000000, A.D. 2025-Feb-22 00:00:00.0000, -9.586127236812426E+09, 5.219782797452198E+09, -1.342312030872210E+09,
2460735.500000000, A.D. 2025-Mar-01 00:00:00.0000, -9.587807792766602E+09, 5.219126585459242E+09, -1.343593829256836E+09,
2460742.500000000, A.D. 2025-Mar-08 00:00:00.0000, -9.589488001788370E+09, 5.218470093672915E+09, -1.344875578401399E+09,
2460749.500000000, A.D. 2025-Mar-15 00:00:00.0000, -9.591167859518639E+09, 5.217813324182068E+09, -1.346157278592927E+09,
2460756.500000000, A.D. 2025-Mar-22 00:00:00.0000, -9.592847362768967E+09, 5.217156281218102E+09, -1.347438929869995E+09,
2460763.500000000, A.D. 2025-Mar-29 00:00:00.0000, -9.594526510382645E+09, 5.216498969322826E+09, -1.348720532087588E+09,
2460770.500000000, A.D. 2025-Apr-05 00:00:00.0000, -9.596205302401186E+09, 5.215841392400041E+09, -1.350002085064383E+09,
2460777.500000000, A.D. 2025-Apr-12 00:00:00.0000, -9.597883739462198E+09, 5.215183553755054E+09, -1.351283588627607E+09,
2460784.500000000, A.D. 2025-Apr-19 00:00:00.0000, -9.599561822615831E+09, 5.214525456241031E+09, -1.352565042610605E+09,
2460791.500000000, A.D. 2025-Apr-26 00:00:00.0000, -9.601239553288147E+09, 5.213867102309529E+09, -1.353846446844889E+09,
2460798.500000000, A.D. 2025-May-03 00:00:00.0000, -9.602916933277721E+09, 5.213208493984721E+09, -1.355127801155760E+09,
2460805.500000000, A.D. 2025-May-10 00:00:00.0000, -9.604593964756891E+09, 5.212549632770365E+09, -1.356409105363587E+09,
2460812.500000000, A.D. 2025-May-17 00:00:00.0000, -9.606270650240919E+09, 5.211890519448791E+09, -1.357690359297606E+09,
2460819.500000000, A.D. 2025-May-24 00:00:00.0000, -9.607946992351164E+09, 5.211231153717734E+09, -1.358971562842730E+09,
2460826.500000000, A.D. 2025-May-31 00:00:00.0000, -9.609622992954464E+09, 5.210571533976230E+09, -1.360252716032331E+09,
2460833.500000000, A.D. 2025-Jun-07 00:00:00.0000, -9.611298652079699E+09, 5.209911658464593E+09, -1.361533819051773E+09,
2460840.500000000, A.D. 2025-Jun-14 00:00:00.0000, -9.612973968976028E+09, 5.209251527091838E+09, -1.362814871990327E+09,
2460847.500000000, A.D. 2025-Jun-21 00:00:00.0000, -9.614648944096144E+09, 5.208591140679346E+09, -1.364095874720367E+09,
2460854.500000000, A.D. 2025-Jun-28 00:00:00.0000, -9.616323578876215E+09, 5.207930499385638E+09, -1.365376827046544E+09,
2460861.500000000, A.D. 2025-Jul-05 00:00:00.0000, -9.617997874829336E+09, 5.207269602468899E+09, -1.366657728809532E+09,
2460868.500000000, A.D. 2025-Jul-12 00:00:00.0000, -9.619671833143456E+09, 5.206608448582039E+09, -1.367938579900867E+09,
2460875.500000000, A.D. 2025-Jul-19 00:00:00.0000, -9.621345454594185E+09, 5.205947036025393E+09, -1.369219380253202E+09,
2460882.500000000, A.D. 2025-Jul-26 00:00:00.0000, -9.623018739562607E+09, 5.205285362900627E+09, -1.370500129829747E+09,
2460889.500000000, A.D. 2025-Aug-02 00:00:00.0000, -9.624691688092657E+09, 5.204623427187664E+09, -1.371780828617049E+09,
2460896.500000000, A.D. 2025-Aug-09 00:00:00.0000, -9.626364299964674E+09, 5.203961226730222E+09, -1.373061476624280E+09,
2460903.500000000, A.D. 2025-Aug-16 00:00:00.0000, -9.628036574708178E+09, 5.203298759067018E+09, -1.374342073901099E+09,
2460910.500000000, A.D. 2025-Aug-23 00:00:00.0000, -9.629708511261255E+09, 5.202636021125379E+09, -1.375622620599368E+09,
2460917.500000000, A.D. 2025-Aug-30 00:00:00.0000, -9.631380106947588E+09, 5.201973009491556E+09, -1.376903117050309E+09,
2460924.500000000, A.D. 2025-Sep-06 00:00:00.0000, -9.633051357189304E+09, 5.201309722258211E+09, -1.378183563645039E+09,
2460931.500000000, A.D. 2025-Sep-13 00:00:00.0000, -9.634722257626347E+09, 5.200646159966326E+09, -1.379463960567873E+09,
2460938.500000000, A.D. 2025-Sep-20 00:00:00.0000, -9.636392805369175E+09, 5.199982323997284E+09, -1.380744307816783E+09,
2460945.500000000, A.D. 2025-Sep-27 00:00:00.0000, -9.638062998326220E+09, 5.199318215526871E+09, -1.382024605353583E+09,
2460952.500000000, A.D. 2025-Oct-04 00:00:00.0000, -9.639732834622812E+09, 5.198653835580563E+09, -1.383304853154628E+09,
2460959.500000000, A.D. 2025-Oct-11 00:00:00.0000, -9.641402312485212E+09, 5.197989185247309E+09, -1.384585051204721E+09,
2460966.500000000, A.D. 2025-Oct-18 00:00:00.0000, -9.643071430306082E+09, 5.197324265777649E+09, -1.385865199482623E+09,
2460973.500000000, A.D. 2025-Oct-25 00:00:00.0000, -9.644740186751900E+09, 5.196659078577504E+09, -1.387145297950099E+09,
2460980.500000000, A.D. 2025-Nov-01 00:00:00.0000, -9.646408580872850E+09, 5.195993625113534E+09, -1.388425346546970E+09,
2460987.500000000, A.D. 2025-Nov-08 00:00:00.0000, -9.648076612180738E+09, 5.195327906699075E+09, -1.389705345198024E+09,
2460994.500000000, A.D. 2025-Nov-15 00:00:00.0000, -9.649744280547110E+09, 5.194661924102629E+09, -1.390985293850382E+09,
2461001.500000000, A.D. 2025-Nov-22 00:00:00.0000, -9.651411585518873E+09, 5.193995677199390E+09, -1.392265192560430E+09,
2461008.500000000, A.D. 2025-Nov-29 00:00:00.0000, -9.653078525204826E+09, 5.193329165801298E+09, -1.393545041523758E+09,
2461015.500000000, A.D. 2025-Dec-06 00:00:00.0000, -9.654745097010403E+09, 5.192662391529972E+09, -1.394824840850527E+09,
2461022.500000000, A.D. 2025-Dec-13 00:00:00.0000, -9.656411299787163E+09, 5.191995357362570E+09, -1.396104590401624E+09,
2461029.500000000, A.D. 2025-Dec-20 00:00:00.0000, -9.658077133903786E+09, 5.191328065874067E+09, -1.397384289922512E+09,
2461036.500000000, A.D. 2025-Dec-27 00:00:00.0000, -9.659742600312397E+09, 5.190660518767698E+09, -1.398663939164587E+09,
2461043.500000000, A.D. 2026-Jan-03 00:00:00.0000, -9.661407700069506E+09, 5.189992717078567E+09, -1.399943537910532E+09,
2461050.500000000, A.D. 2026-Jan-10 00:00:00.0000, -9.663072434201714E+09, 5.189324661372157E+09, -1.401223085969159E+09,
2461057.500000000, A.D. 2026-Jan-17 00:00:00.0000, -9.664736803683693E+09, 5.188656351847065E+09, -1.402502583168533E+09,
2461064.500000000, A.D. 2026-Jan-24 00:00:00.0000, -9.666400809450455E+09, 5.187987788365436E+09, -1.403782029352533E+09,
2461071.500000000, A.D. 2026-Jan-31 00:00:00.0000, -9.668064452420488E+09, 5.187318970404667E+09, -1.405061424383529E+09,
2461078.500000000, A.D. 2026-Feb-07 00:00:00.0000, -9.669727733468214E+09, 5.186649896873945E+09, -1.406340768161386E+09,
2461085.500000000, A.D. 2026-Feb-14 00:00:00.0000, -9.671390653092730E+09, 5.185980565781212E+09, -1.407620060683147E+09,
2461092.500000000, A.D. 2026-Feb-21 00:00:00.0000, -9.673053210395254E+09, 5.185310974328350E+09, -1.408899302131668E+09,
2461099.500000000, A.D. 2026-Feb-28 00:00:00.0000, -9.674715402450148E+09, 5.184641120588750E+09, -1.410178492799376E+09,
2461106.500000000, A.D. 2026-Mar-07 00:00:00.0000, -9.676377226128006E+09, 5.183971004817543E+09, -1.411457632817585E+09,
2461113.500000000, A.D. 2026-Mar-14 00:00:00.0000, -9.678038679595182E+09, 5.183300628062018E+09, -1.412736722136537E+09,
2461120.500000000, A.D. 2026-Mar-21 00:00:00.0000, -9.679699761706791E+09, 5.182629990970188E+09, -1.414015760682736E+09,
2461127.500000000, A.D. 2026-Mar-28 00:00:00.0000, -9.681360471302633E+09, 5.181959093826248E+09, -1.415294748425099E+09,
2461134.500000000, A.D. 2026-Apr-04 00:00:00.0000, -9.683020807009758E+09, 5.181287936847277E+09, -1.416573685373313E+09,
2461141.500000000, A.D. 2026-Apr-11 00:00:00.0000, -9.684680767277718E+09, 5.180616520381194E+09, -1.417852571562747E+09,
2461148.500000000, A.D. 2026-Apr-18 00:00:00.0000, -9.686340350487114E+09, 5.179944844999269E+09, -1.419131407040872E+09,
2461155.500000000, A.D. 2026-Apr-25 00:00:00.0000, -9.687999555085402E+09, 5.179272911497902E+09, -1.420410191858008E+09,
2461162.500000000, A.D. 2026-May-02 00:00:00.0000, -9.689658379718899E+09, 5.178600720780000E+09, -1.421688926067410E+09,
2461169.500000000, A.D. 2026-May-09 00:00:00.0000, -9.691316823236006E+09, 5.177928273549775E+09, -1.422967609751398E+09,
2461176.500000000, A.D. 2026-May-16 00:00:00.0000, -9.692974884183342E+09, 5.177255569959318E+09, -1.424246243096751E+09,
2461183.500000000, A.D. 2026-May-23 00:00:00.0000, -9.694632559742683E+09, 5.176582610229325E+09, -1.425524826440489E+09,
2461190.500000000, A.D. 2026-May-30 00:00:00.0000, -9.696289846186886E+09, 5.175909396563608E+09, -1.426803360069302E+09,
2461197.500000000, A.D. 2026-Jun-06 00:00:00.0000, -9.697946741172058E+09, 5.175235933083834E+09, -1.428081844011113E+09,
2461204.500000000, A.D. 2026-Jun-13 00:00:00.0000, -9.699603244199970E+09, 5.174562223983453E+09, -1.429360278138877E+09,
2461211.500000000, A.D. 2026-Jun-20 00:00:00.0000, -9.701259355751637E+09, 5.173888272826970E+09, -1.430638662301748E+09,
2461218.500000000, A.D. 2026-Jun-27 00:00:00.0000, -9.702915076790541E+09, 5.173214082654726E+09, -1.431916996355852E+09,
2461225.500000000, A.D. 2026-Jul-04 00:00:00.0000, -9.704570408635523E+09, 5.172539656118316E+09, -1.433195280158264E+09,
2461232.500000000, A.D. 2026-Jul-11 00:00:00.0000, -9.706225352949474E+09, 5.171864995514832E+09, -1.434473513558538E+09,
2461239.500000000, A.D. 2026-Jul-18 00:00:00.0000, -9.707879911751112E+09, 5.171190102745658E+09, -1.435751696394444E+09,
2461246.500000000, A.D. 2026-Jul-25 00:00:00.0000, -9.709534087425385E+09, 5.170514979202666E+09, -1.437029828494175E+09,
2461253.500000000, A.D. 2026-Aug-01 00:00:00.0000, -9.711187882684500E+09, 5.169839625533731E+09, -1.438307909693552E+09,
2461260.500000000, A.D. 2026-Aug-08 00:00:00.0000, -9.712841300264685E+09, 5.169164041251760E+09, -1.439585939891018E+09,
2461267.500000000, A.D. 2026-Aug-15 00:00:00.0000, -9.714494341943710E+09, 5.168488224637787E+09, -1.440863919141775E+09,
2461274.500000000, A.D. 2026-Aug-22 00:00:00.0000, -9.716147007640379E+09, 5.167812174159507E+09, -1.442141847621508E+09,
$$EOE